#cP2022  4 11  6  0  0.00000000     576 d+D   IGb14 EXT AIUB
## 2205 108000.00000000   300.00000000 59680 0.2500000000000
+   77   G01G02G03G04G05G06G07G08G09G10G11G12G13G14G15G16G17
+        G18G19G20G21G22G23G24G25G26G27G28G29G30G31G32R01R02
+        R03R04R05R07R08R09R12R13R14R15R17R18R19R20R21R22R24
+        E01E02E03E04E05E07E08E09E10E11E12E13E14E15E18E19E21
+        E24E25E26E27E30E31E33E34E36  0  0  0  0  0  0  0  0
++         9  7  6  7  7  8  7  6  6  6  8  7  7  8  7  7  7
++         8  6  7  7  7  6  7  6  6  5  7  7  6  7  6  7  5
++         6  6  6  7  6  7  8  8  8  7  8  7  8  9  8  8  8
++         6  6  5  6  7  6  5  6  7  6  7  6  6  6  6  7  7
++         6  6  6  6  7  6  5  6  6  0  0  0  0  0  0  0  0
%c M  cc GPS ccc cccc cccc cccc cccc ccccc ccccc ccccc ccccc
%c cc cc ccc ccc cccc cccc cccc cccc ccccc ccccc ccccc ccccc
%f  1.2500000  1.025000000  0.00000000000  0.000000000000000
%f  0.0000000  0.000000000  0.00000000000  0.000000000000000
%i    0    0    0    0      0      0      0      0         0
%i    0    0    0    0      0      0      0      0         0
/* Center for Orbit Determination in Europe (CODE)          
/* Ultra-rapid GRE orbits starting year-day 22101 06 hour   
/* Observed/predicted: 25/23 hours (data used up to 102G)   
/* PCV:IGS14      OL/AL:FES2014b NONE     YN ORB:CoN CLK:BRD
*  2022  4 11 13  5  0.00000000
PG01  -8971.941337 -13458.808081 -21428.339427    387.515310
PG02 -14239.158072  14791.730565  17583.607100   -653.045166
PG03 -12432.851184 -23084.332707  -4715.851650   -202.222780
PG04  -2678.443813 -20521.754596  16607.530852   -176.781351
PG05    254.207796  20027.879405  17204.513332    -77.917177
PG06 -25445.807284   5759.632448   5273.886860    262.903810
PG07 -23098.415698  -6698.166150  12195.765217    319.836410
PG08   4237.728605 -24614.081903  -8530.665262    -63.491833
PG09 -11443.739961 -11197.899884  21120.631877   -344.403315
PG10  18627.920450   4591.936495 -18345.566644   -375.729047
PG11 -15241.494009  12814.044351  17567.572514    -42.231784
PG12   8127.643056  24109.495411  -8107.683332   -198.719868
PG13 -12874.587511  23040.501473  -2137.678500    292.308864
PG14 -18879.884568  -5785.714746 -17806.026556   -101.681395
PG15   -523.760951  24852.934290  -9307.537934    -69.773507
PG16   5595.981031 -16805.894988  19365.080611   -490.538673
PG17 -17511.892831   6277.553789 -18550.718461    598.976122
PG18  22698.403946   6669.258335  12172.111110    198.154602
PG19 -18667.381657  12178.611516 -14554.550603    142.969579
PG20  -7789.117769  14056.528385  21174.933934    515.879220
PG21   2647.350261 -15263.101377 -20833.232338    160.342647
PG22  17919.615494 -15407.297283 -11527.206855    241.673308
PG23  19822.353073  14291.863015 -10535.251417    -14.121240
PG24   4962.876777  15247.609441 -21494.098641    257.962927
PG25  17558.314524  19676.610677   3943.650021    310.540120
PG26  14076.242965  -7326.349046  21235.193218    197.807389
PG27  12446.357992 -23057.293825   2508.202134    180.359296
PG28 -15101.388412   2877.123751 -21117.056442    372.319874
PG29   9139.680763  12886.160436  21289.711467   -501.850803
PG30 -26438.284613   -739.556730   3712.558434   -523.261296
PG31  24801.939502  -6911.899675   7317.811156   -172.950365
PG32  17573.122114  -9145.612562 -17456.816052   -103.180003
PR01 -10912.989453  -6803.412647  22039.494506      7.695568
PR02  -8815.989317  14463.714997  19144.601943    515.178802
PR03  -1679.969521  25059.076185   4667.813833     54.709353
PR04   6086.561739  21531.091241 -12222.986420    136.200673
PR05  10549.559575   6215.722803 -22363.355356     90.961066
PR07   1289.784471 -25161.420701  -3792.888467     33.758581
PR08  -6335.484654 -21369.285283  12446.066039    -64.543537
PR09  14873.846309  -3598.623108  20399.577344     49.236448
PR12 -22960.166628  -8673.706461  -6890.442890     17.871232
PR13 -15772.430288   2471.716771 -19912.271209    -20.723529
PR14   1783.213974  12979.396729 -21875.957539     76.400477
PR15  17353.751011  15294.114218 -10736.255335     96.913063
PR17 -10935.589981  15548.039535  16998.619939    516.565963
PR18   5067.355682   9127.669831  23285.950549    113.236069
PR19  17989.691005   -824.118973  18061.066556   -184.967232
PR20  22242.256933 -12431.486343   -290.928303    -68.415263
PR21   9788.975951 -15206.363697 -18000.408265   -292.482497
PR22  -5983.597313  -8529.660844 -23300.563350   -176.225436
PR24 -21761.381483  13263.545677   1025.974149     88.587650
PE01 -22530.872796  -6629.640840 -18015.113831   -614.309995
PE02  22499.009066   6501.513427  18106.581634    292.141287
PE03  18314.755468  -4532.611946 -22807.433346   -546.883911
PE04 -15216.082332  23017.860756  10725.905404  -1004.222581
PE05  10702.263279  17011.949871 -21722.851181   -191.851864
PE07   3008.318046 -28337.321594   8037.761428   -657.526780
PE08  14922.190774 -23330.799663 -10459.266069   -510.515096
PE09  -2835.906355  28285.702154  -8215.301485   -480.569218
PE10 -13537.747860  16637.486308  20393.106806   -506.042571
PE11  -1964.011094  16677.585273  24369.459207   3988.139034
PE12 -22431.484096  13974.628908  13355.716976   4668.231704
PE13   2699.286123 -16695.806540 -24287.326035    427.956611
PE14  -2938.583700 -26620.268922 -18264.368503  -1810.301542
PE15  22492.104513 -13932.370892 -13254.599287    752.327574
PE18   1046.822419  19778.743341  12683.356968  -1577.267906
PE19 -17816.363305   1761.534686  23583.553568  -2835.142529
PE21 -20949.752581 -20795.576672  -2165.415480   -727.837566
PE24   5993.500688  23690.154871 -16739.156559   -555.096906
PE25  20838.828186  20941.587685   1900.133983   -570.018740
PE26 -19396.259722  -9278.970452 -20343.128954  -1017.840361
PE27  -7204.840040 -23922.214672  15863.207112   -273.803774
PE30  11582.511106 -12061.090166  24410.213716   -422.072982
PE31 -10645.676981  12952.328522 -24392.013658   -494.898916
PE33 -28934.609828   2973.079517  -5531.565808   -457.714237
PE34  28942.973092  -3156.952689   5332.570308   -511.493171
PE36  18511.220757   9645.769494  20983.241171   -358.154389
EOF
